{
    "links": {
        "self": "http://www.neowsapp.com/rest/v1/neo/3478351?api_key=iIulBulltgU6a56xZRHN4H3l9WmuAYTsLGpBGhQ2"
    },
    "id": "3478351",
    "neo_reference_id": "3478351",
    "name": "(2009 WQ52)",
    "designation": "2009 WQ52",
    "nasa_jpl_url": "http://ssd.jpl.nasa.gov/sbdb.cgi?sstr=3478351",
    "absolute_magnitude_h": 28.1,
    "estimated_diameter": {
        "kilometers": {
            "estimated_diameter_min": 0.0063760979,
            "estimated_diameter_max": 0.0142573883
        },
        "meters": {
            "estimated_diameter_min": 6.3760978988,
            "estimated_diameter_max": 14.2573883328
        },
        "miles": {
            "estimated_diameter_min": 0.0039619223,
            "estimated_diameter_max": 0.0088591276
        },
        "feet": {
            "estimated_diameter_min": 20.9189570301,
            "estimated_diameter_max": 46.7762099378
        }
    },
    "is_potentially_hazardous_asteroid": false,
    "close_approach_data": [
        {
            "close_approach_date": "2008-06-12",
            "close_approach_date_full": "2008-Jun-12 23:46",
            "epoch_date_close_approach": 1213314360000,
            "relative_velocity": {
                "kilometers_per_second": "8.0339949475",
                "kilometers_per_hour": "28922.3818110147",
                "miles_per_hour": "17971.2432980719"
            },
            "miss_distance": {
                "astronomical": "1.8468787267",
                "lunar": "718.4358246863",
                "kilometers": "276289123.662632129",
                "miles": "171678100.6246522202"
            },
            "orbiting_body": "Juptr"
        },
        {
            "close_approach_date": "2009-11-26",
            "close_approach_date_full": "2009-Nov-26 20:41",
            "epoch_date_close_approach": 1259268060000,
            "relative_velocity": {
                "kilometers_per_second": "13.9669559305",
                "kilometers_per_hour": "50281.0413497521",
                "miles_per_hour": "31242.6837209057"
            },
            "miss_distance": {
                "astronomical": "0.0091877475",
                "lunar": "3.5740337775",
                "kilometers": "1374467.456097825",
                "miles": "854054.474186985"
            },
            "orbiting_body": "Moon"
        },
        {
            "close_approach_date": "2009-11-27",
            "close_approach_date_full": "2009-Nov-27 00:57",
            "epoch_date_close_approach": 1259283420000,
            "relative_velocity": {
                "kilometers_per_second": "13.3613177859",
                "kilometers_per_hour": "48100.7440293332",
                "miles_per_hour": "29887.9317553376"
            },
            "miss_distance": {
                "astronomical": "0.0084969011",
                "lunar": "3.3052945279",
                "kilometers": "1271118.306160657",
                "miles": "789836.2902527866"
            },
            "orbiting_body": "Earth"
        }
    ],
    "orbital_data": {
        "orbit_id": "8",
        "orbit_determination_date": "2017-04-06 08:58:58",
        "first_observation_date": "2009-11-23",
        "last_observation_date": "2009-11-25",
        "data_arc_in_days": 2,
        "observations_used": 21,
        "orbit_uncertainty": "8",
        "minimum_orbit_intersection": ".00737573",
        "jupiter_tisserand_invariant": "3.071",
        "epoch_osculation": "2455159.5",
        "eccentricity": ".6607576326914523",
        "semi_major_axis": "2.574821844693562",
        "inclination": "5.784811940349458",
        "ascending_node_longitude": "61.31676374729543",
        "orbital_period": "1509.104118655324",
        "perihelion_distance": ".8734886579916059",
        "perihelion_argument": "49.07261970899646",
        "aphelion_distance": "4.276155031395519",
        "perihelion_time": "2455194.338226474313",
        "mean_anomaly": "351.6892669129232",
        "mean_motion": ".2385521287429626",
        "equinox": "J2000",
        "orbit_class": {
            "orbit_class_type": "APO",
            "orbit_class_description": "Near-Earth asteroid orbits which cross the Earth’s orbit similar to that of 1862 Apollo",
            "orbit_class_range": "a (semi-major axis) > 1.0 AU; q (perihelion) < 1.017 AU"
        }
    },
    "is_sentry_object": false
}